STARLINK-5175           
1 54079U 22136AE  22304.91668981 -.00668615  00000+0 -50207-2 0  9997
2 54079  53.2172  91.9308 0001435  45.3751 160.0570 15.73786751  1308
STARLINK-5160           
1 54080U 22136AF  22304.91668981 -.00635676  00000+0 -47645-2 0  9992
2 54080  53.2172  91.9340 0001005  67.7899 135.8990 15.73741827  1301
STARLINK-5165           
1 54081U 22136AG  22304.91668981 -.00700588  00000+0 -52724-2 0  9992
2 54081  53.2171  91.9284 0001406  58.0711 148.5193 15.73824334  1300
STARLINK-5210           
1 54082U 22136AH  22304.91668981 -.00679935  00000+0 -51091-2 0  9990
2 54082  53.2172  91.9292 0001466  54.1044 151.9079 15.73802397  1309
STARLINK-5178           
1 54083U 22136AJ  22304.91668981 -.00757698  00000+0 -57233-2 0  9998
2 54083  53.2172  91.9238 0001184  64.5633 144.3384 15.73898855  1305
STARLINK-5183           
1 54084U 22136AK  22304.91668981 -.00740801  00000+0 -55928-2 0  9996
2 54084  53.2172  91.9269 0001451  50.4509 156.7081 15.73861743  1300
STARLINK-5166           
1 54085U 22136AL  22304.91668981 -.00785950  00000+0 -59499-2 0  9998
2 54085  53.2172  91.9226 0000904  63.8305 145.6430 15.73928380  1304
STARLINK-5211           
1 54086U 22136AM  22304.91668981 -.00725648  00000+0 -54685-2 0  9999
2 54086  53.2172  91.9258 0001761  41.6956 166.0515 15.73858984  1301
STARLINK-5184           
1 54087U 22136AN  22304.91668981 -.00789294  00000+0 -59731-2 0  9994
2 54087  53.2172  91.9216 0001551  32.5496 177.5025 15.73940474  1300
STARLINK-5153           
1 54088U 22136AP  22304.91668981 -.00736326  00000+0 -55530-2 0  9996
2 54088  53.2172  91.9246 0001281  60.9145 147.4106 15.73875682  1304
STARLINK-5143           
1 54089U 22136AQ  22304.91668981 -.00840269  00000+0 -63800-2 0  9998
2 54089  53.2171  91.9180 0001337  57.8245 153.9482 15.74007955  1309
STARLINK-5177           
1 54090U 22136AR  22304.91668981 -.00796872  00000+0 -60301-2 0  9993
2 54090  53.2172  91.9186 0001343  46.5360 164.6751 15.73964639  1306
STARLINK-5221           
1 54091U 22136AS  22304.91668981 -.00853730  00000+0 -64823-2 0  9994
2 54091  53.2172  91.9147 0001375  71.5604 141.9497 15.74044894  1306
STARLINK-5190           
1 54092U 22136AT  22304.91668981 -.00786212  00000+0 -59465-2 0  9991
2 54092  53.2172  91.9201 0001245  54.6322 156.0020 15.73947180  1301
STARLINK-5213           
1 54093U 22136AU  22304.91668981 -.00861767  00000+0 -65459-2 0  9991
2 54093  53.2172  91.9133 0001176  70.5294 143.5575 15.74060143  1306
STARLINK-5219           
1 54094U 22136AV  22304.91668981 -.00853596  00000+0 -64873-2 0  9992
2 54094  53.2172  91.9167 0001265  61.2886 151.0648 15.74024189  1302
STARLINK-5193           
1 54095U 22136AW  22304.91668981 -.00880918  00000+0 -66966-2 0  9996
2 54095  53.2172  91.9112 0001037  61.4557 153.7776 15.74097173  1301
STARLINK-5188           
1 54096U 22136AX  22304.91668981 -.00839553  00000+0 -63688-2 0  9994
2 54096  53.2172  91.9154 0001429  62.4801 150.4541 15.74025913  1303
STARLINK-5197           
1 54097U 22136AY  22304.91668981  .00129914  00000+0  82255-3 0  9998
2 54097  53.2156  91.9025 0000494 346.1995 233.3937 15.75686063  1300
STARLINK-5217           
1 54098U 22136AZ  22304.91668981 -.00902092  00000+0 -68663-2 0  9993
2 54098  53.2172  91.9097 0001083  56.3695 159.4273 15.74127164  1302
STARLINK-5198           
1 54099U 22136BA  22304.91668981 -.00947879  00000+0 -72354-2 0  9998
2 54099  53.2172  91.9067 0001368  62.8982 154.6202 15.74188753  1307
STARLINK-5185           
1 54100U 22136BB  22304.91668981 -.00872512  00000+0 -66309-2 0  9995
2 54100  53.2172  91.9120 0001147  69.2315 145.4299 15.74078826  1309
STARLINK-5204           
1 54101U 22136BC  22304.91668981 -.00837723  00000+0 -63269-2 0  9993
2 54101  53.2176  91.9050 0001781  34.3541 183.7789 15.74119029  1304
STARLINK-5179           
1 54102U 22136BD  22304.91668981 -.00922769  00000+0 -70309-2 0  9992
2 54102  53.2172  91.9072 0001213  52.2243 164.7245 15.74160818  1301
STARLINK-5200           
1 54103U 22136BE  22304.91668981 -.00975766  00000+0 -73314-2 0  9997
2 54103  53.2171  91.9042 0001380  66.1494 152.5192 15.74218367  1304
STARLINK-5203           
1 54104U 22136BF  22304.91668981 -.01003149  00000+0 -75467-2 0  9997
2 54104  53.2172  91.9026 0001319  68.4809 150.7425 15.74254667  1307
FALCON 9 DEB            
1 54105U 22136BG  22304.83443520  .01675595  11703-4  10343-2 0  9996
2 54105  53.2185  91.0623 0046096  80.9861 279.6389 16.14650135  1815
FALCON 9 DEB            
1 54106U 22136BH  22304.83098175  .01433016  11704-4  89602-3 0  9995
2 54106  53.2124  91.0313 0042577  82.6664 277.9210 16.14862756  1813
FALCON 9 DEB            
1 54107U 22136BJ  22304.82201177  .01623535  11754-4  90807-3 0  9994
2 54107  53.2151  90.9631 0039880  75.0088 285.5360 16.16567539  1818
FALCON 9 DEB            
1 54108U 22136BK  22304.82015669  .01793030  11781-4  93013-3 0  9994
2 54108  53.2161  90.9522 0039308  75.4530 285.0864 16.17571825  1818
COSMOS 2561             
1 54109U 22137A   22304.92693712  .00018471  00000+0  31833-3 0  9995
2 54109  97.0756  24.8354 0007871 224.2263 135.8361 15.51065772  1563
COSMOS 2562             
1 54110U 22137B   22304.92215156  .00019168  00000+0  30873-3 0  9996
2 54110  97.0754  24.8419 0011956 246.0769 113.9232 15.52909813  1565
SL-4 R/B                
1 54111U 22137C   22305.04780591  .02868788  23128-5  79801-3 0  9999
2 54111  97.0684  25.7970 0077420  35.1536  44.4925 16.20011104  1646
ONEWEB-0490             
1 54113U 22138A   22305.00002315 -.00009064  00000+0 -93104-3 0  9993
2 54113  87.4291 213.9396 0011301 257.3191  19.6516 14.90579754  2241
ONEWEB-0492             
1 54114U 22138B   22304.91668981 -.00053181  00000+0 -55249-2 0  9996
2 54114  87.4298 213.9686 0012728 260.0548 278.7412 14.90261277  1309
ONEWEB-0495             
1 54115U 22138C   22304.91668981 -.00051490  00000+0 -54792-2 0  9990
2 54115  87.4309 213.9758 0013210 278.9809 227.8116 14.89279541  1305
ONEWEB-0497             
1 54116U 22138D   22304.91668981 -.00052765  00000+0 -55137-2 0  9991
2 54116  87.4317 213.9718 0013313 265.1167 265.7877 14.90018466  1304
ONEWEB-0499             
1 54117U 22138E   22304.91668981 -.00053309  00000+0 -55321-2 0  9992
2 54117  87.4311 213.9684 0012575 259.7730 280.5388 14.90307388  1301
ONEWEB-0500             
1 54118U 22138F   22304.91668981 -.00054062  00000+0 -55039-2 0  9996
2 54118  87.4297 213.9620 0009134 259.4517 307.0869 14.91109167  1307
ONEWEB-0501             
1 54119U 22138G   22304.91668981 -.00052421  00000+0 -55083-2 0  9993
2 54119  87.4278 213.9682 0013773 269.0509 254.3200 14.89787747  1303
ONEWEB-0502             
1 54120U 22138H   22304.91668981 -.00053957  00000+0 -55294-2 0  9994
2 54120  87.4298 213.9639 0010153 256.0468 301.6485 14.90837612  1308
ONEWEB-0503             
1 54121U 22138J   22304.91668981 -.00053368  00000+0 -55341-2 0  9994
2 54121  87.4287 213.9682 0012415 259.5304 281.8546 14.90339117  1309
ONEWEB-0504             
1 54122U 22138K   22304.91668981 -.00054079  00000+0 -55189-2 0  9995
2 54122  87.4305 213.9677 0009120 259.8800 303.5198 14.91012866  1303
ONEWEB-0505             
1 54123U 22138L   22304.91668981 -.00051542  00000+0 -54668-2 0  9999
2 54123  87.4282 213.9684 0013279 274.4635 236.4574 14.89411794  1307
ONEWEB-0506             
1 54124U 22138M   22304.91668981 -.00051910  00000+0 -54892-2 0  9998
2 54124  87.4300 213.9725 0014590 276.0152 238.6976 14.89520657  1303
ONEWEB-0507             
1 54125U 22138N   22304.91668981 -.00110067  00000+0 -11203-1 0  9996
2 54125  87.4298 213.9623 0008114 263.4504 311.7360 14.91435099  1301
ONEWEB-0508             
1 54126U 22138P   22304.91668981 -.00053701  00000+0 -55299-2 0  9992
2 54126  87.4303 213.9669 0011156 257.0761 294.0073 14.90633447  1303
ONEWEB-0509             
1 54127U 22138Q   22304.91668981 -.00052514  00000+0 -55068-2 0  9998
2 54127  87.4321 213.9731 0013585 267.5622 258.6027 14.89872536  1301
ONEWEB-0510             
1 54128U 22138R   22304.91668981 -.00053769  00000+0 -53875-2 0  9996
2 54128  87.4292 213.9595 0008268 277.0395 310.5646 14.91751249  1307
ONEWEB-0511             
1 54129U 22138S   22304.91668981 -.00053943  00000+0 -55221-2 0  9998
2 54129  87.4304 213.9678 0010016 256.4210 302.6422 14.90881225  1306
ONEWEB-0512             
1 54130U 22138T   22304.91668981 -.00052666  00000+0 -55165-2 0  9998
2 54130  87.4273 213.9669 0013204 266.9597 260.7838 14.89923367  1306
ONEWEB-0513             
1 54131U 22138U   22304.91668981 -.01037415  00000+0 -14847+0 0  9994
2 54131  87.4467 213.9829 0008181 266.3613 187.3123 14.79519704  1307
ONEWEB-0514             
1 54132U 22138V   22304.91668981 -.00054044  00000+0 -55220-2 0  9994
2 54132  87.4298 213.9624 0009673 257.5572 304.1777 14.90960391  1305
ONEWEB-0515             
1 54133U 22138W   22304.91668981 -.00054515  00000+0 -54922-2 0  9996
2 54133  87.4274 213.9574 0008150 270.4902 310.0893 14.91537929  1307
ONEWEB-0516             
1 54134U 22138X   22304.91668981 -.00053914  00000+0 -55311-2 0  9992
2 54134  87.4302 213.9663 0010300 255.6035 300.6605 14.90791529  1304
ONEWEB-0517             
1 54135U 22138Y   22304.91668981 -.00053572  00000+0 -55369-2 0  9996
2 54135  87.4284 213.9674 0011825 258.4345 287.5600 14.90479216  1308
ONEWEB-0518             
1 54136U 22138Z   22304.91668981 -.00052988  00000+0 -55269-2 0  9996
2 54136  87.4300 213.9694 0012654 263.7456 269.8968 14.90099724  1305
ONEWEB-0519             
1 54137U 22138AA  22304.91668981 -.00054084  00000+0 -55018-2 0  9998
2 54137  87.4304 213.9660 0009002 260.0186 307.6190 14.91142198  1309
ONEWEB-0520             
1 54138U 22138AB  22305.00002315  .00062565  00000+0  63537-2 0  9999
2 54138  87.4313 213.9398 0011582 257.4698  18.1553 14.90483147  2244
